ION SCV-007             
1 55060U 23001BD  26068.71316433  .00000653  00000+0  98781-4 0  9992
2 55060  97.9119 133.6572 0011115 300.6234  59.3880 14.77452062171569
KUIPER-00085            
1 64831U 25151R   26068.80730848 -.00003291  00000+0 -40306-3 0  9998
2 64831  51.9029 287.6079 0000680 101.2991 258.8047 14.79916389 35498
