[{"OBJECT_NAME":"ION SCV-007","OBJECT_ID":"2023-001BD","EPOCH":"2026-03-09T17:06:57.398976","MEAN_MOTION":14.77452062,"ECCENTRICITY":0.0011115,"INCLINATION":97.9119,"RA_OF_ASC_NODE":133.6572,"ARG_OF_PERICENTER":300.6234,"MEAN_ANOMALY":59.388,"EPHEMERIS_TYPE":0,"CLASSIFICATION_TYPE":"U","NORAD_CAT_ID":55060,"ELEMENT_SET_NO":999,"REV_AT_EPOCH":17156,"BSTAR":9.8780653e-5,"MEAN_MOTION_DOT":6.53e-6,"MEAN_MOTION_DDOT":0},{"OBJECT_NAME":"KUIPER-00085","OBJECT_ID":"2025-151R","EPOCH":"2026-03-09T19:22:31.453536","MEAN_MOTION":14.79916389,"ECCENTRICITY":6.799e-5,"INCLINATION":51.9029,"RA_OF_ASC_NODE":287.6079,"ARG_OF_PERICENTER":101.2991,"MEAN_ANOMALY":258.8047,"EPHEMERIS_TYPE":0,"CLASSIFICATION_TYPE":"U","NORAD_CAT_ID":64831,"ELEMENT_SET_NO":999,"REV_AT_EPOCH":3549,"BSTAR":-0.00040306367,"MEAN_MOTION_DOT":-3.291e-5,"MEAN_MOTION_DDOT":0}]
